REGION,FOREST,DISTRICT,TOWN,STATE,LATITUDE,LONGITUDE,LOCATION,Resource Types,Housing?,NOTES,SITE
"NORTHERN REGION, REGION 1",BEAVERHEAD-DEERLODGE NF,BUTTE RD,BUTTE,MONTANA,,,"BUTTE,MONTANA","Engine, Fuels, Prevention, Type 2/2IA Handcrew (Dedicated 20+person), IA Crew/Squad (4-10 person), Hotshot Crew",NO,,http://www.fs.usda.gov/bdnf
"NORTHERN REGION, REGION 1",BEAVERHEAD-DEERLODGE NF,DILLON RD,DILLON,MONTANA,,,"DILLON,MONTANA","Engine, Type 2/2IA Handcrew, IA Crew/Squad (4-10 person)",YES,Some housing available through university,http://www.fs.usda.gov/bdnf
"NORTHERN REGION, REGION 1",BEAVERHEAD-DEERLODGE NF,MADISON RD,ENNIS,MONTANA,,,"ENNIS,MONTANA",,YES,,http://www.fs.usda.gov/bdnf
"NORTHERN REGION, REGION 1",BEAVERHEAD-DEERLODGE NF,PINTLER RD,PHILIPSBURG,MONTANA,,,"PHILIPSBURG,MONTANA",Engine,YES,,http://www.fs.usda.gov/bdnf
"NORTHERN REGION, REGION 1",BEAVERHEAD-DEERLODGE NF,BUTTE RD,WHITEHALL,MONTANA,,,"WHITEHALL,MONTANA","Engine, IA Crew/Squad (4-10 person)",YES,"I have stayed in the housing, one male one female building. I believe they have 2 T6 engines",http://www.fs.usda.gov/bdnf
"NORTHERN REGION, REGION 1",BEAVERHEAD-DEERLODGE NF,WISDOM RD,WISDOM,MONTANA,,,"WISDOM,MONTANA","Engine, IA Crew/Squad (4-10 person)",YES,,http://www.fs.usda.gov/bdnf
"NORTHERN REGION, REGION 1",BEAVERHEAD-DEERLODGE NF,WISDOM RD,WISE RIVER,MONTANA,,,"WISE RIVER,MONTANA","Engine, IA Crew/Squad (4-10 person), Helitack",YES,"New Helibase construction in Wise River that includes new, additional housing for seasonals (slated to be completed Oct 2022). Will add 8 new seasonal beds",http://www.fs.usda.gov/bdnf
"NORTHERN REGION, REGION 1",BITTERROOT NF,WEST FORK RD,DARBY,MONTANA,,,"DARBY,MONTANA","Engine, IA Crew/Squad (4-10 person), Fuels",YES,"bunkhouse and station are 25 min from town, West Fork ranger station, duty station darby, separate crew/ district from ""Darby/sula"" ",http://www.fs.usda.gov/bitterroot
"NORTHERN REGION, REGION 1",BITTERROOT NF,Supervisors Office,HAMILTON,MONTANA,,,"HAMILTON,MONTANA",Helitack,NO,,http://www.fs.usda.gov/bitterroot
"NORTHERN REGION, REGION 1",BITTERROOT NF,STEVENSVILLE RD,STEVENSVILLE,MONTANA,,,"STEVENSVILLE,MONTANA",Engine,YES,,http://www.fs.usda.gov/bitterroot
"NORTHERN REGION, REGION 1",BITTERROOT NF,SULA RD,SULA,MONTANA,,,"SULA,MONTANA","Engine, Hotshot Crew",YES,,http://www.fs.usda.gov/bitterroot
"NORTHERN REGION, REGION 1",CUSTER GALLATIN NF,ASHLAND RD,ASHLAND,MONTANA,,,"ASHLAND,MONTANA","Engine, Fuels",YES,,http://www.fs.usda.gov/custergallatin
"NORTHERN REGION, REGION 1",CUSTER GALLATIN NF,BOZEMAN RD,BIG TIMBER,MONTANA,,,"BIG TIMBER,MONTANA",Engine,YES,,http://www.fs.usda.gov/custergallatin
"NORTHERN REGION, REGION 1",CUSTER GALLATIN NF,BOZEMAN RD,BOZEMAN,MONTANA,,,"BOZEMAN,MONTANA",Engine,YES,Very cool location for housing outside of town in the Gallatin Canyon. ,http://www.fs.usda.gov/custergallatin
"NORTHERN REGION, REGION 1",CUSTER GALLATIN NF,SIOUX RD,CAMP CROOK,SOUTH DAKOTA,,,"CAMP CROOK,SOUTH DAKOTA",,,,http://www.fs.usda.gov/custergallatin
"NORTHERN REGION, REGION 1",CUSTER GALLATIN NF,GARDINER RD,GARDINER,MONTANA,,,"GARDINER,MONTANA",,,,http://www.fs.usda.gov/custergallatin
"NORTHERN REGION, REGION 1",CUSTER GALLATIN NF,BOZEMAN RD,BOZEMAN,MONTANA,,,"GALLITAN GATEWAY,MONTANA",Rappel,YES,Very cool location for housing outside of town in the Gallatin Canyon. ,http://www.fs.usda.gov/custergallatin
"NORTHERN REGION, REGION 1",CUSTER GALLATIN NF,YELLOWSTONE RD,LIVINGSTON,MONTANA,,,"LIVINGSTON,MONTANA",Engine,NO,,http://www.fs.usda.gov/custergallatin
"NORTHERN REGION, REGION 1",CUSTER GALLATIN NF,BEARTOOTH RD,RED LODGE,MONTANA,,,"RED LODGE,MONTANA",,,,http://www.fs.usda.gov/custergallatin
"NORTHERN REGION, REGION 1",CUSTER GALLATIN NF,HEBGEN LAKE RD,WEST YELLOWSTONE,MONTANA,,,"WEST YELLOWSTONE,MONTANA","Engine, IA Crew/Squad (4-10 person)",YES,,http://www.fs.usda.gov/custergallatin
"NORTHERN REGION, REGION 1",DAKOTA PRAIRIE GRASSLANDS,MEDORA RD,DICKINSON,NORTH DAKOTA,,,"DICKINSON,NORTH DAKOTA",,,,http://www.fs.usda.gov/dpg/
"NORTHERN REGION, REGION 1",DAKOTA PRAIRIE GRASSLANDS,GRAND RIVER DISTRICT,LEMMON,SOUTH DAKOTA,,,"LEMMON,SOUTH DAKOTA",,,,http://www.fs.usda.gov/dpg/
"NORTHERN REGION, REGION 1",DAKOTA PRAIRIE GRASSLANDS,SHEYENNE RD,LISBON,NORTH DAKOTA,,,"LISBON,NORTH DAKOTA",,,,http://www.fs.usda.gov/dpg/
"NORTHERN REGION, REGION 1",DAKOTA PRAIRIE GRASSLANDS,MCKENZIE RD,WATFORD CITY,NORTH DAKOTA,,,"WATFORD CITY,NORTH DAKOTA",,,,http://www.fs.usda.gov/dpg/
"NORTHERN REGION, REGION 1",FLATHEAD NF,SWAN LAKE RD,BIGFORK,MONTANA,,,"BIGFORK,MONTANA","Engine, Type 2/2IA Handcrew, Hotshot Crew, WFM, Prevention",YES,,http://www.fs.usda.gov/flathead
"NORTHERN REGION, REGION 1",FLATHEAD NF,TALLY LAKE RD,CONDON,MONTANA,,,"CONDON,MONTANA",Type 2/2IA Handcrew (Dedicated 20+person),YES,"The housing for the Great Northern T2IA is arguably some of the best in the nation in a beautiful location not too far from civilization. I just wish it was a shot crew, I'd never leave.",http://www.fs.usda.gov/flathead
"NORTHERN REGION, REGION 1",FLATHEAD NF,SPOTTED BEAR RD,HUNGRY HORSE,MONTANA,,,"HUNGRY HORSE,MONTANA",,,,http://www.fs.usda.gov/flathead
"NORTHERN REGION, REGION 1",FLATHEAD NF,HUNGRY HORSE RD,HUNGRY HORSE,MONTANA,,,"HUNGRY HORSE,MONTANA",Engine,YES,,http://www.fs.usda.gov/flathead
"NORTHERN REGION, REGION 1",FLATHEAD NF,TALLY LAKE RD,KALISPELL,MONTANA,,,"KALISPELL,MONTANA",Engine,NO,,http://www.fs.usda.gov/flathead
"NORTHERN REGION, REGION 1",FLATHEAD NF,SPOTTED BEAR RD,SPOTTED BEAR,MONTANA,,,"SPOTTED BEAR,MONTANA","Engine, WFM",YES,,http://www.fs.usda.gov/flathead
"NORTHERN REGION, REGION 1",HELENA-LEWIS AND CLARK NF,ROCKY MOUNTAIN RD,AUGUSTA,MONTANA,,,"AUGUSTA,MONTANA","Engine, WFM",YES,,http://www.fs.usda.gov/helena/
"NORTHERN REGION, REGION 1",HELENA-LEWIS AND CLARK NF,ROCKY MOUNTAIN RD,CHOTEAU,MONTANA,,,"CHOTEAU,MONTANA",,,,http://www.fs.usda.gov/helena/
"NORTHERN REGION, REGION 1",HELENA-LEWIS AND CLARK NF,MUSSELSHELL RD,HARLOWTON,MONTANA,,,"HARLOWTON,MONTANA",,,,http://www.fs.usda.gov/helena/
"NORTHERN REGION, REGION 1",HELENA-LEWIS AND CLARK NF,HELENA RD,HELENA,MONTANA,,,"HELENA,MONTANA","Engine, Hotshot Crew",NO,,http://www.fs.usda.gov/helena/
"NORTHERN REGION, REGION 1",HELENA-LEWIS AND CLARK NF,LINCOLN RD,LINCOLN,MONTANA,,,"LINCOLN,MONTANA","Engine, IA Crew/Squad (4-10 person)",YES,,http://www.fs.usda.gov/helena/
"NORTHERN REGION, REGION 1",HELENA-LEWIS AND CLARK NF,BELT CREEK RD,NEIHART,MONTANA,,,"NEIHART,MONTANA",,,,http://www.fs.usda.gov/helena/
"NORTHERN REGION, REGION 1",HELENA-LEWIS AND CLARK NF,JUDITH RD,STANFORD,MONTANA,,,"STANFORD,MONTANA",,,,http://www.fs.usda.gov/helena/
"NORTHERN REGION, REGION 1",HELENA-LEWIS AND CLARK NF,TOWNSEND RD,TOWNSEND,MONTANA,,,"TOWNSEND,MONTANA",Engine,YES,,http://www.fs.usda.gov/helena/
"NORTHERN REGION, REGION 1",HELENA-LEWIS AND CLARK NF,WHITE SULPHUR SPRINGS RD,WHITE SULPHUR SPGS,MONTANA,,,"WHITE SULPHUR SPGS,MONTANA",Engine,YES,,http://www.fs.usda.gov/helena/
"NORTHERN REGION, REGION 1",IDAHO PANHANDLE NFS,ST. JOE RD,AVERY,IDAHO,,,"AVERY,IDAHO","Engine, WFM",YES,,https://www.fs.usda.gov/ipnf/
"NORTHERN REGION, REGION 1",IDAHO PANHANDLE NFS,BONNERS FERRY RD,BONNERS FERRY,IDAHO,,,"BONNERS FERRY,IDAHO",Engine,YES,,https://www.fs.usda.gov/ipnf/
"NORTHERN REGION, REGION 1",IDAHO PANHANDLE NFS,COEUR D ALENE RIVER RD,COEUR D ALENE,IDAHO,,,"COEUR D ALENE,IDAHO",Helitack,NO,,https://www.fs.usda.gov/ipnf/
"NORTHERN REGION, REGION 1",IDAHO PANHANDLE NFS,PRIEST LAKE RD,PRIEST RIVER,IDAHO,,,"PRIEST RIVER,IDAHO",,,,https://www.fs.usda.gov/ipnf/
"NORTHERN REGION, REGION 1",IDAHO PANHANDLE NFS,SANDPOINT RD,SANDPOINT,IDAHO,,,"SANDPOINT,IDAHO",WFM,NO,,https://www.fs.usda.gov/ipnf/
"NORTHERN REGION, REGION 1",IDAHO PANHANDLE NFS,COEUR D ALENE RIVER RD,SMELTERVILLE,IDAHO,,,"SMELTERVILLE,IDAHO",,,,https://www.fs.usda.gov/ipnf/
"NORTHERN REGION, REGION 1",IDAHO PANHANDLE NFS,ST. JOE RD,ST. MARIES,IDAHO,,,"ST. MARIES, IDAHO",Engine,NO,,https://www.fs.usda.gov/ipnf/
"NORTHERN REGION, REGION 1",IDAHO PANHANDLE NFS,,PRIEST LAKE,IDAHO,,,"PRIEST LAKE,IDAHO",Engine,YES,,https://www.fs.usda.gov/ipnf/
"NORTHERN REGION, REGION 1",KOOTENAI NF,REXFORD RD,EUREKA,MONTANA,,,"EUREKA,MONTANA","Engine, IA Crew/Squad (4-10 person), Fuels, Prevention",YES,Bunk house and rv pad available. Fire crew has priority for bunkhouse. ,http://www.fs.usda.gov/kootenai
"NORTHERN REGION, REGION 1",KOOTENAI NF,FORTINE RD,FORTINE,MONTANA,,,"FORTINE,MONTANA","Engine, IA Crew/Squad (4-10 person), Fuels, Prevention",YES,Bunkhouse and rv pads available. Fortine is combined with Eureka. Fire crews bunk in Eureka. Fortine is mostly malita. ,http://www.fs.usda.gov/kootenai
"NORTHERN REGION, REGION 1",KOOTENAI NF,LIBBY RD,LIBBY,MONTANA,,,"LIBBY,MONTANA",,,,http://www.fs.usda.gov/kootenai
"NORTHERN REGION, REGION 1",KOOTENAI NF,CABINET RD,TROUT CREEK,MONTANA,,,"TROUT CREEK,MONTANA",Engine,YES,"1 bunkhouse, 6 rooms, 12 beds.  Tends to fill up fast.  Several permanent houses, all occupied most of the time.  ",http://www.fs.usda.gov/kootenai
"NORTHERN REGION, REGION 1",KOOTENAI NF,THREE RIVERS RD,TROY,MONTANA,,,"TROY,MONTANA",,,,http://www.fs.usda.gov/kootenai
"NORTHERN REGION, REGION 1",LOLO NF,NINEMILE RD,HUSON,MONTANA,,,"HUSON,MONTANA","Engine, IA Crew/Squad (4-10 person)",NO,,http://www.fs.usda.gov/lolo
"NORTHERN REGION, REGION 1",LOLO NF,MISSOULA RD,MISSOULA,MONTANA,,,"MISSOULA,MONTANA","Engine, Type 2/2IA Handcrew (Dedicated 20+person), IA Crew/Squad (4-10 person), Hotshot Crew, WFM, Helitack, Rappel, Fuels, Prevention",YES,,http://www.fs.usda.gov/lolo
"NORTHERN REGION, REGION 1",LOLO NF,SUPERIOR RD,NINEMILE,MONTANA,,,"NINEMILE,MONTANA",Engine,NO,,http://www.fs.usda.gov/lolo
"NORTHERN REGION, REGION 1",LOLO NF,PLAINS/THOMPSON FALLS RDS,PLAINS,MONTANA,,,"PLAINS,MONTANA","Engine, Hotshot Crew, Fuels",YES,,http://www.fs.usda.gov/lolo
"NORTHERN REGION, REGION 1",LOLO NF,SEELEY RD,SEELEY LAKE,MONTANA,,,"SEELEY LAKE,MONTANA",Engine,YES,,http://www.fs.usda.gov/lolo
"NORTHERN REGION, REGION 1",LOLO NF,SUPERIOR RD,SUPERIOR,MONTANA,,,"SUPERIOR,MONTANA",Engine,YES,,http://www.fs.usda.gov/lolo
"NORTHERN REGION, REGION 1",NEZ PERCE-CLEARWATER NF,RED RIVER RD,ELK CITY,IDAHO,,,"ELK CITY,IDAHO","Engine, IA Crew/Squad (4-10 person),Type 2/2IA Handcrew (Dedicated 20+person), Fuels, Prevention",YES,Two different stations. Housing at both.,http://www.fs.usda.gov/nezperceclearwater/
"NORTHERN REGION, REGION 1",NEZ PERCE-CLEARWATER NF,GRANGEVILLE AIR CENTER,GRANGEVILLE,IDAHO,,,"GRANGEVILLE,IDAHO","Smokejumper, Helitack",NO,,http://www.fs.usda.gov/nezperceclearwater/
"NORTHERN REGION, REGION 1",NEZ PERCE-CLEARWATER NF,LOCHSA/POWELL RD,KOOSKIA,IDAHO,,,"KOOSKIA,IDAHO","Engine, IA Crew/Squad (4-10 person), WFM, Prevention",YES,,http://www.fs.usda.gov/nezperceclearwater/
"NORTHERN REGION, REGION 1",NEZ PERCE-CLEARWATER NF,MOOSE CREEK RD,KOOSKIA,IDAHO,,,"MOOSE CREEK, IDAHO","Engine, WFM",YES,The trails/other house has a rape shower,http://www.fs.usda.gov/nezperceclearwater/
"NORTHERN REGION, REGION 1",NEZ PERCE-CLEARWATER NF,,MOOSE CREEK,IDAHO,,,"MOOSE CREEK,IDAHO","Engine, WFM",YES,,http://www.fs.usda.gov/nezperceclearwater/
"NORTHERN REGION, REGION 1",NEZ PERCE-CLEARWATER NF,NORTH FORK RD,OROFINO,IDAHO,,,"OROFINO,IDAHO","Engine, IA Crew/Squad (4-10 person), Fuels",YES,,http://www.fs.usda.gov/nezperceclearwater/
"NORTHERN REGION, REGION 1",NEZ PERCE-CLEARWATER NF,PALOUSE RD,POTLATCH,IDAHO,,,"POTLATCH,IDAHO",Type 2/2IA Handcrew,YES,,http://www.fs.usda.gov/nezperceclearwater/
"NORTHERN REGION, REGION 1",NEZ PERCE-CLEARWATER NF,LOCHSA/POWELL RD,POWELL,IDAHO,,,"POWELL,IDAHO","Engine, IA Crew/Squad (4-10 person)",YES,No cell service,http://www.fs.usda.gov/nezperceclearwater/
"NORTHERN REGION, REGION 1",NEZ PERCE-CLEARWATER NF,SALMON RIVER RD,WHITE BIRD,IDAHO,,,"WHITE BIRD,IDAHO","Engine, IA Crew/Squad (4-10 person)",YES,,http://www.fs.usda.gov/nezperceclearwater/